satname,norad_id,inclination_deg,eccentricity,mean_motion_rev_per_day,perigee_km,apogee_km,l1,l2
STARLINK-1265,45406,53.1614,0.0001938,15.31482421,470.0612256162285,472.7161017634735,1 45406U 20019AY  26090.83815742  .00060146  00000+0  19475-2 0  9990,2 45406  53.1614  26.4214 0001938 125.8253 234.2929 15.31482421333367
STARLINK-1278,45408,53.0447,0.0003426,15.59704935,386.1921024849971,390.82860925323894,1 45408U 20019BA  26090.91671296  .00082822  00000+0  10132-2 0  9991,2 45408  53.0447  22.4655 0003426 127.4850 244.8521 15.59704935  5922
STARLINK-1296,45412,53.1595,0.0002472,15.31919901,468.39167983255265,471.7774405719165,1 45412U 20019BE  26090.23909703  .00064068  00000+0  20445-2 0  9998,2 45412  53.1595  29.0507 0002472 137.1000 223.0194 15.31919901333274
STARLINK-1309,45414,53.0664,0.0006895,15.59136206,385.4890396298042,394.8225153699759,1 45414U 20019BG  26090.91671296  .00091832  00000+0  11451-2 0  9994,2 45414  53.0664  15.8851 0006895 117.1974 318.3277 15.59136206  5970
STARLINK-1316,45415,53.1618,0.000163,15.31962185,468.84230727720933,471.07478642548176,1 45415U 20019BH  26090.54520796  .00064303  00000+0  20493-2 0  9991,2 45415  53.1618  27.6760 0001630 148.6721 211.4377 15.31962185333344
STARLINK-1286,45417,53.0497,0.0003698,15.52608345,406.60387284199624,411.62372353233513,1 45417U 20019BK  26090.82717052  .00050543  00000+0  81002-3 0  9992,2 45417  53.0497  24.2191 0003698 118.3774 241.7608 15.52608345333665
STARLINK-1308,45419,53.0523,0.0006097,15.54704618,398.87693814956583,407.1458705138084,1 45419U 20019BM  26090.91671296  .00126311  00000+0  18471-2 0  9999,2 45419  53.0523  45.0386 0006097 107.1353  40.6060 15.54704618  5968
STARLINK-1329,45531,53.0467,6.15e-05,15.65361968,371.78279974916404,372.6130909474423,1 45531U 20025A   26089.96861701  .00070398  00000+0  69302-3 0  9999,2 45531  53.0467 337.6196 0000615 138.1691 221.9371 15.65361968328773
STARLINK-1338,45532,53.0482,0.0004034,15.58477984,389.3302675876457,394.79246362901813,1 45532U 20025B   26090.91671296 -.00038319  00000+0 -48882-3 0  9994,2 45532  53.0482 337.0025 0004034 101.4640 257.9546 15.58477984  5843
STARLINK-1350,45535,53.0717,0.0001995,15.36673317,454.5913929029557,457.31819552884735,1 45535U 20025E   26090.58252144  .00013917  00000+0  39286-3 0  9990,2 45535  53.0717 290.2831 0001995 111.1288 248.9928 15.36673317329523
STARLINK-1362,45538,53.1624,0.0001667,15.30593868,472.8970449716662,475.18156055100735,1 45538U 20025H   26090.46949604 -.00155624  00000+0 -52872-2 0  9993,2 45538  53.1624 359.8164 0001667  80.3074 279.8115 15.30593868328516
STARLINK-1368,45540,53.1627,0.0001005,15.30199386,474.5281406460399,475.9056647804855,1 45540U 20025K   26090.48064365  .00003250  00000+0  12181-3 0  9995,2 45540  53.1627   0.1100 0001005  80.7559 279.3555 15.30199386328505
STARLINK-1371,45542,53.0516,0.0001539,15.50739377,413.5206854518301,415.6114794606092,1 45542U 20025M   26090.87996168  .00097463  00000+0  16529-2 0  9993,2 45542  53.0516 343.1229 0001539 131.5915 228.5226 15.50739377328770
STARLINK-1372,45543,53.162,0.0001776,15.30182636,474.04975114828994,476.4840802191411,1 45543U 20025N   26090.45742627 -.00004117  00000+0 -12700-3 0  9991,2 45543  53.1620 359.9121 0001776  92.3571 267.7633 15.30182636327605
STARLINK-1373,45544,53.0495,0.0004304,15.54497896,400.6937115622404,406.53144159776,1 45544U 20025P   26090.00356005  .00115952  00000+0  17119-2 0  9990,2 45544  53.0495 346.2910 0004304 102.8858 257.2633 15.54497896328658
STARLINK-1327,45555,53.0451,0.0005545,15.579935,389.70997687553245,397.2196833051021,1 45555U 20025AA  26090.87457129  .00091072  00000+0  11862-2 0  9991,2 45555  53.0451 319.1848 0005545 146.1913 213.9453 15.57993500329108
STARLINK-1356,45564,53.0513,0.0005046,15.481261,418.7766519601082,425.6395602411849,1 45564U 20025AK  26090.38061300  .00088297  00000+0  16436-2 0  9996,2 45564  53.0513 330.3234 0005046 120.3660 239.7847 15.48126100328904
STARLINK-1357,45565,53.0486,0.0004114,15.60267665,384.1001448521638,389.66640353376897,1 45565U 20025AL  26090.91671296  .00152933  00000+0  18100-2 0  9996,2 45565  53.0486 290.0931 0004114 214.3700 175.6165 15.60267665  5981
STARLINK-1361,45567,53.0494,0.0006571,15.51357173,408.3002933434291,417.2248935891621,1 45567U 20025AN  26090.87667750  .00067611  00000+0  11275-2 0  9997,2 45567  53.0494 327.5155 0006571 109.9771 250.1946 15.51357173328991
STARLINK-1363,45568,53.0383,0.0004272,15.8256526,320.3263536632312,326.0519667345052,1 45568U 20025AP  26090.91671296  .00194041  00000+0  89144-3 0  9992,2 45568  53.0383 286.2482 0004272 146.1138 272.1749 15.82565260  5998
STARLINK-1366,45569,53.0391,0.0004823,15.81137612,323.98841991671543,330.4564096081958,1 45569U 20025AQ  26090.91671296  .00183524  00000+0  90207-3 0  9999,2 45569  53.0391 287.2101 0004823 140.7862 101.4709 15.81137612  6034
STARLINK-1376,45570,53.1607,0.0001587,15.3200665,468.73926827628475,470.9128117451837,1 45570U 20025AR  26090.39371847  .00055019  00000+0  17548-2 0  9995,2 45570  53.1607 336.8843 0001587 168.0141 192.0899 15.32006650328821
STARLINK-1320,45572,53.0461,0.000427,15.72347049,349.3172242103101,355.0649243857606,1 45572U 20025AT  26090.69864670  .00103851  00000+0  76200-3 0  9990,2 45572  53.0461 236.8387 0004270 103.8518 256.2975 15.72347049330262
STARLINK-1321,45573,53.0482,0.0003619,15.52121484,408.07622950880705,412.9898688904177,1 45573U 20025AU  26090.87079338  .00074618  00000+0  12096-2 0  9990,2 45573  53.0482 312.0073 0003619 152.5670 207.5530 15.52121484328906
STARLINK-1331,45578,53.0522,0.0005168,15.52048877,407.23627571987527,414.2532639171586,1 45578U 20025AZ  26090.87954868  .00099492  00000+0  16091-2 0  9991,2 45578  53.0522 318.6649 0005168 172.7374 187.3710 15.52048877329127
STARLINK-1333,45580,53.1597,0.0001194,15.30203314,474.38688537490725,476.02346348616175,1 45580U 20025BB  26090.11660504  .00003735  00000+0  13816-3 0  9990,2 45580  53.1597 338.2840 0001194  94.1003 266.0134 15.30203314328786
STARLINK-1335,45581,53.1583,0.0001576,15.29349768,476.67439639896384,478.835373521104,1 45581U 20025BC  26090.39939974 -.00000132  00000+0  77816-5 0  9992,2 45581  53.1583 334.3308 0001576 100.9767 259.1411 15.29349768328856
STARLINK-1337,45582,53.0516,0.000479,15.62446726,377.354505124541,383.8293674455017,1 45582U 20025BD  26090.91671296  .00119163  00000+0  13032-2 0  9992,2 45582  53.0516 313.4973 0004790 181.7315 185.7604 15.62446726  5933
STARLINK-1347,45586,53.0417,0.000363,15.58394195,389.84636542205317,394.7617056138388,1 45586U 20025BH  26090.25934635  .00098104  00000+0  12575-2 0  9994,2 45586  53.0417 284.9907 0003630 158.2260 201.8906 15.58394195329522
STARLINK-1364,45589,53.0493,0.0007113,15.53232038,402.47027184204944,412.1232298960367,1 45589U 20025BL  26090.01123180  .00108953  00000+0  16852-2 0  9992,2 45589  53.0493 320.6763 0007113 142.2183 217.9327 15.53232038329004
STARLINK-1365,45590,53.0525,0.0004982,15.48743547,417.013531301458,423.7875941289476,1 45590U 20025BM  26090.89217554  .00072949  00000+0  13330-2 0  9992,2 45590  53.0525 347.4822 0004982 130.0165 230.1280 15.48743547328720
STARLINK-1443,45660,53.136,0.0003159,15.26973258,482.6984786176363,487.0345242298363,1 45660U 20035D   26090.06532381  .00053743  00000+0  20013-2 0  9995,2 45660  53.1360 326.1917 0003159 142.9343 217.1875 15.26973258322022
STARLINK-1446,45663,53.0234,0.0001831,15.43816633,433.6099234507228,436.104841993676,1 45663U 20035G   26090.44000604  .00023130  00000+0  51024-3 0  9992,2 45663  53.0234 255.9874 0001831   5.2984 354.8040 15.43816633323039
STARLINK-1448,45665,53.0484,0.000684,15.56914173,391.9601503257172,401.2279824245179,1 45665U 20035J   26090.91671296  .00121327  00000+0  16363-2 0  9990,2 45665  53.0484 305.3407 0006840 172.0182 311.7532 15.56914173  5833
STARLINK-1451,45668,53.0529,0.0001953,15.11174609,531.2669415660812,533.9662819268287,1 45668U 20035M   26090.38142682  .00029236  00000+0  17326-2 0  9992,2 45668  53.0529 328.0428 0001953 100.0712 260.0499 15.11174609322025
STARLINK-1452,45669,53.0307,0.0004765,15.48309795,418.43011503609796,424.91033131978566,1 45669U 20035N   26090.77803757  .00052450  00000+0  97796-3 0  9997,2 45669  53.0307 276.2073 0004765 137.0745 223.0634 15.48309795322789
STARLINK-1453,45670,53.0445,0.000204,15.57331102,394.00305903608114,396.76665595393933,1 45670U 20035P   26090.91671296  .00195515  00000+0  25701-2 0  9992,2 45670  53.0445 265.8810 0002040 136.2786  59.7495 15.57331102  5860
STARLINK-1454,45671,53.0487,0.0006593,15.55554885,396.07094482183766,405.0093084810396,1 45671U 20035Q   26090.88491122  .00131456  00000+0  18616-2 0  9998,2 45671  53.0487 305.8308 0006593 153.9342 206.2001 15.55554885322367
STARLINK-1456,45673,53.048,0.0002635,15.53612022,404.4026433492245,407.9779838434888,1 45673U 20035S   26090.58241695  .00111762  00000+0  17055-2 0  9999,2 45673  53.0480 301.0092 0002635 221.6517 138.4292 15.53612022322421
STARLINK-1457,45674,53.0427,0.0003706,15.85582946,312.20344606209983,317.1641648431023,1 45674U 20035T   26090.91671296  .00275293  00000+0  10846-2 0  9992,2 45674  53.0427 270.5862 0003706 172.5869 243.6483 15.85582946  6046
STARLINK-1458,45675,53.0516,0.0006024,15.45986482,424.38072473891316,432.58133814319353,1 45675U 20035U   26090.87469618  .00099402  00000+0  19881-2 0  9995,2 45675  53.0516 309.9463 0006024 165.1779 194.9404 15.45986482322281
STARLINK-1460,45676,53.1622,0.0001266,15.30186014,474.38918975359866,476.12446907120557,1 45676U 20035V   26090.87138811  .00000506  00000+0  29219-4 0  9999,2 45676  53.1622 321.9157 0001266  84.6384 275.4761 15.30186014322115
STARLINK-1392,45677,53.1528,0.0001406,15.2934737,476.7981121939847,478.7259910072944,1 45677U 20035W   26090.87613126 -.00000127  00000+0  79494-5 0  9998,2 45677  53.1528 321.8314 0001406  93.4031 266.7130 15.29347370322157
